NORAD_CAT_ID,OBJECT_NAME,OBJECT_TYPE,EPOCH,MEAN_MOTION,ECCENTRICITY,INCLINATION,RA_OF_ASC_NODE,ARG_OF_PERICENTER,MEAN_ANOMALY,BSTAR,MEAN_MOTION_DOT,MEAN_MOTION_DDOT,TLE_LINE0,TLE_LINE1,TLE_LINE2,SEMIMAJOR_AXIS,PERIOD,APOGEE,PERIGEE,DECAYED
56805.0,STARLINK-6064,PAYLOAD,2023-12-07 14:00:01,15.28198021,0.000327,70.0003,240.6092,260.0,315.4432,-0.033393,-0.00848511,0.0,0 STARLINK-6064,1 56805U 23078AQ  23341.58335648 -.00848511  00000-0 -33393-1 0  9990,2 56805  70.0003 240.6092 0003270 260.0000 315.4432 15.28198021  6037,6859.336,94.229,483.444,478.958,0.0
56805.0,STARLINK-6064,PAYLOAD,2023-12-08 14:00:01,15.26239932,0.0003429,70.0006,237.9729,259.706,52.1773,-0.035329,-0.00845936,0.0,0 STARLINK-6064,1 56805U 23078AQ  23342.58334491 -.00845936  00000-0 -35329-1 0  9995,2 56805  70.0006 237.9729 0003429 259.7060  52.1773 15.26239932 30274,6865.202,94.35,489.421,484.713,0.0
56805.0,STARLINK-6064,PAYLOAD,2023-12-08 22:00:00,15.25640271,0.0003457,70.0008,237.0958,263.3306,79.143,-0.040243,-0.00949838,0.0,0 STARLINK-6064,1 56805U 23078AQ  23342.91667824 -.00949838  00000-0 -40243-1 0  9998,2 56805  70.0008 237.0958 0003457 263.3306  79.1430 15.25640271  5931,6867.0,94.387,491.239,486.492,0.0
56805.0,STARLINK-6064,PAYLOAD,2023-12-09 06:00:00,15.24985457,0.0003456,70.0005,236.2195,267.4389,104.8537,-0.040631,-0.00940953,0.0,0 STARLINK-6064,1 56805U 23078AQ  23343.25001157 -.00940953  00000-0 -40631-1 0  9997,2 56805  70.0005 236.2195 0003456 267.4389 104.8537 15.24985457 30374,6868.966,94.427,493.205,488.457,0.0
56805.0,STARLINK-6064,PAYLOAD,2023-12-09 14:00:01,15.24285486,0.0003451,70.0007,235.3443,261.1491,140.1958,-0.03762,-0.00849033,0.0,0 STARLINK-6064,1 56805U 23078AQ  23343.58334491 -.00849033  00000-0 -37620-1 0  9994,2 56805  70.0007 235.3443 0003451 261.1491 140.1958 15.24285486  6033,6871.069,94.47,495.305,490.563,0.0
56805.0,STARLINK-6064,PAYLOAD,2023-12-09 22:00:00,15.23682094,0.0003367,70.001,234.4699,264.3591,165.2313,-0.042626,-0.00948731,0.0,0 STARLINK-6064,1 56805U 23078AQ  23343.91667824 -.00948731  00000-0 -42626-1 0  9997,2 56805  70.0010 234.4699 0003367 264.3591 165.2313 15.23682094  5804,6872.883,94.508,497.062,492.434,0.0
56805.0,STARLINK-6064,PAYLOAD,2023-12-10 14:00:01,15.2233294,0.0003263,70.0006,232.7237,263.7502,220.0156,-0.04021,-0.00855629,0.0,0 STARLINK-6064,1 56805U 23078AQ  23344.58334491 -.00855629  00000-0 -40210-1 0  9992,2 56805  70.0006 232.7237 0003263 263.7502 220.0156 15.22332940 30576,6876.943,94.592,501.052,496.564,0.0
56805.0,STARLINK-6064,PAYLOAD,2023-12-10 22:00:01,15.21721318,0.0003237,70.0008,231.8518,266.2506,243.4803,-0.044884,-0.00942963,0.0,0 STARLINK-6064,1 56805U 23078AQ  23344.91668981 -.00942963  00000-0 -44884-1 0  9992,2 56805  70.0008 231.8518 0003237 266.2506 243.4803 15.21721318  5966,6878.785,94.63,502.877,498.424,0.0
56805.0,STARLINK-6064,PAYLOAD,2023-12-11 06:00:00,15.21076856,0.0003178,70.0004,230.9808,268.4563,266.3331,-0.046171,-0.00951112,0.0,0 STARLINK-6064,1 56805U 23078AQ  23345.25001157 -.00951112  00000-0 -46171-1 0  9993,2 56805  70.0004 230.9808 0003178 268.4563 266.3331 15.21076856 30682,6880.728,94.67,504.78,500.406,0.0
56805.0,STARLINK-6064,PAYLOAD,2023-12-11 14:00:01,15.20380276,0.0003235,70.0004,230.1109,260.7446,298.4011,-0.042888,-0.00871403,0.0,0 STARLINK-6064,1 56805U 23078AQ  23345.58334491 -.00871403  00000-0 -42888-1 0  9994,2 56805  70.0004 230.1109 0003235 260.7446 298.4011 15.20380276  6022,6882.83,94.713,506.921,502.468,0.0
56805.0,STARLINK-6064,PAYLOAD,2023-12-11 22:00:01,15.1975991,0.0003225,70.0006,229.2416,263.7758,318.9912,-0.047075,-0.00934375,0.0,0 STARLINK-6064,1 56805U 23078AQ  23345.91668981 -.00934375  00000-0 -47075-1 0  9996,2 56805  70.0006 229.2416 0003225 263.7758 318.9912 15.19759910 30783,6884.703,94.752,508.788,504.347,0.0
56805.0,STARLINK-6064,PAYLOAD,2023-12-12 14:00:01,15.18424052,0.0003305,70.0,227.5059,258.8881,8.5988,-0.045418,-0.00871747,0.0,0 STARLINK-6064,1 56805U 23078AQ  23346.58334491 -.00871747  00000-0 -45418-1 0  9998,2 56805  70.0000 227.5059 0003305 258.8881   8.5988 15.18424052  5852,6888.74,94.835,512.882,508.328,0.0
56805.0,STARLINK-6064,PAYLOAD,2023-12-13 00:00:00,15.17626834,0.0003319,70.0001,226.4228,266.6099,117.273,-0.048616,-0.00909056,0.0,0 STARLINK-6064,1 56805U 23078AQ  23347.00001157 -.00909056  00000-0 -48616-1 0  9994,2 56805  70.0001 226.4228 0003319 266.6099 117.2730 15.17626834  5924,6891.152,94.885,515.304,510.73,0.0
56805.0,STARLINK-6064,PAYLOAD,2023-12-13 06:00:00,15.17168324,0.0003293,69.9996,225.7736,264.919,44.2056,-0.052418,-0.00962926,0.0,0 STARLINK-6064,1 56805U 23078AQ  23347.25001157 -.00962926  00000-0 -52418-1 0  9991,2 56805  69.9996 225.7736 0003293 264.9190  44.2056 15.17168324 30983,6892.541,94.914,516.675,512.136,0.0
56805.0,STARLINK-6064,PAYLOAD,2023-12-13 14:00:01,15.16468308,0.0003368,69.9996,224.9089,258.7126,70.0746,-0.048111,-0.00872842,0.0,0 STARLINK-6064,1 56805U 23078AQ  23347.58334491 -.00872842  00000-0 -48111-1 0  9999,2 56805  69.9996 224.9089 0003368 258.7126  70.0746 15.16468308  6012,6894.661,94.957,518.849,514.204,0.0
56805.0,STARLINK-6064,PAYLOAD,2023-12-13 22:00:00,15.15843961,0.0003357,69.9996,224.0448,263.0393,84.6132,-0.052419,-0.00929723,0.0,0 STARLINK-6064,1 56805U 23078AQ  23347.91667824 -.00929723  00000-0 -52419-1 0  9992,2 56805  69.9996 224.0448 0003357 263.0393  84.6132 15.15843961 31081,6896.555,94.997,520.735,516.104,0.0
56805.0,STARLINK-6064,PAYLOAD,2023-12-14 14:00:01,15.14513448,0.0003354,69.9991,222.3194,261.3832,121.6631,-0.051003,-0.00875071,0.0,0 STARLINK-6064,1 56805U 23078AQ  23348.58334491 -.00875071  00000-0 -51003-1 0  9991,2 56805  69.9991 222.3194 0003354 261.3832 121.6631 15.14513448  5777,6900.593,95.08,524.773,520.144,0.0
56805.0,STARLINK-6064,PAYLOAD,2023-12-14 22:00:01,15.13888004,0.0003331,69.9992,221.4579,267.744,131.8857,-0.055505,-0.00931194,0.0,0 STARLINK-6064,1 56805U 23078AQ  23348.91668981 -.00931194  00000-0 -55505-1 0  9992,2 56805  69.9992 221.4579 0003331 267.7440 131.8857 15.13888004  5826,6902.494,95.119,526.658,522.059,0.0
56805.0,STARLINK-6064,PAYLOAD,2023-12-15 06:00:00,15.13253578,0.0003297,69.9988,220.5974,270.1946,145.1033,-0.058485,-0.00961338,0.0,0 STARLINK-6064,1 56805U 23078AQ  23349.25001157 -.00961338  00000-0 -58485-1 0  9999,2 56805  69.9988 220.5974 0003297 270.1946 145.1033 15.13253578 31285,6904.423,95.159,528.564,524.011,0.0
56805.0,STARLINK-6064,PAYLOAD,2023-12-15 14:00:01,15.12561433,0.0003279,69.9989,219.7378,263.9365,166.3273,-0.054297,-0.00881291,0.0,0 STARLINK-6064,1 56805U 23078AQ  23349.58334491 -.00881291  00000-0 -54297-1 0  9991,2 56805  69.9989 219.7378 0003279 263.9365 166.3273 15.12561433  5923,6906.529,95.203,530.658,526.129,0.0
56805.0,STARLINK-6064,PAYLOAD,2023-12-15 22:00:00,15.11926695,0.0003252,69.999,218.8789,268.1826,176.2578,-0.058234,-0.0092511,0.0,0 STARLINK-6064,1 56805U 23078AQ  23349.91667824 -.00925110  00000-0 -58234-1 0  9991,2 56805  69.9990 218.8789 0003252 268.1826 176.2578 15.11926695 31382,6908.462,95.243,532.573,528.08,0.0
56805.0,STARLINK-6064,PAYLOAD,2023-12-16 14:00:01,15.1060831,0.0003204,69.9988,217.1638,262.895,207.5464,-0.057693,-0.00886419,0.0,0 STARLINK-6064,1 56805U 23078AQ  23350.58334491 -.00886419  00000-0 -57693-1 0  9993,2 56805  69.9988 217.1638 0003204 262.8950 207.5464 15.10608310  5901,6912.481,95.326,536.56,532.131,0.0
56805.0,STARLINK-6064,PAYLOAD,2023-12-16 22:00:00,15.0996669,0.0003205,69.9989,216.3075,267.2935,214.9807,-0.061162,-0.00920502,0.0,0 STARLINK-6064,1 56805U 23078AQ  23350.91667824 -.00920502  00000-0 -61162-1 0  9997,2 56805  69.9989 216.3075 0003205 267.2935 214.9807 15.09966690  5955,6914.439,95.366,538.52,534.088,0.0
56805.0,STARLINK-6064,PAYLOAD,2023-12-17 06:00:00,15.09339646,0.000312,69.9987,215.452,267.5493,225.7612,-0.065308,-0.00962558,0.0,0 STARLINK-6064,1 56805U 23078AQ  23351.25001157 -.00962558  00000-0 -65308-1 0  9999,2 56805  69.9987 215.4520 0003120 267.5493 225.7612 15.09339646 31583,6916.354,95.406,540.376,536.061,0.0
56805.0,STARLINK-6064,PAYLOAD,2023-12-17 14:00:01,15.08656299,0.0003157,69.999,214.5975,261.5216,242.1194,-0.061396,-0.0089335,0.0,0 STARLINK-6064,1 56805U 23078AQ  23351.58335648 -.00893350  00000-0 -61396-1 0  9996,2 56805  69.9990 214.5975 0003157 261.5216 242.1194 15.08656299  5919,6918.442,95.449,542.491,538.123,0.0
56805.0,STARLINK-6064,PAYLOAD,2023-12-17 22:00:00,15.08006134,0.0003179,69.9991,213.7439,266.2426,246.8246,-0.064095,-0.00914508,0.0,0 STARLINK-6064,1 56805U 23078AQ  23351.91667824 -.00914508  00000-0 -64095-1 0  9995,2 56805  69.9991 213.7439 0003179 266.2426 246.8246 15.08006134 31695,6920.43,95.49,544.495,540.095,0.0
56805.0,STARLINK-6064,PAYLOAD,2023-12-18 14:00:01,15.06703271,0.0003155,69.9993,212.0391,260.2833,269.3913,-0.065139,-0.00898241,0.0,0 STARLINK-6064,1 56805U 23078AQ  23352.58334491 -.00898241  00000-0 -65139-1 0  9995,2 56805  69.9993 212.0391 0003155 260.2833 269.3913 15.06703271  5984,6924.419,95.573,548.469,544.1,0.0
56805.0,STARLINK-6064,PAYLOAD,2023-12-18 22:00:01,15.06045859,0.0003177,69.9994,211.1879,265.4597,271.4223,-0.067105,-0.0090823,0.0,0 STARLINK-6064,1 56805U 23078AQ  23352.91668981 -.00908230  00000-0 -67105-1 0  9991,2 56805  69.9994 211.1879 0003177 265.4597 271.4223 15.06045859 31847,6926.434,95.615,550.5,546.099,0.0
56805.0,STARLINK-6064,PAYLOAD,2023-12-19 14:00:01,15.04749807,0.0003161,69.9997,209.4883,259.629,289.1017,-0.069047,-0.0090283,0.0,0 STARLINK-6064,1 56805U 23078AQ  23353.58334491 -.00902830  00000-0 -69047-1 0  9998,2 56805  69.9997 209.4883 0003161 259.6290 289.1017 15.04749807  5988,6930.411,95.697,554.466,550.085,0.0
56805.0,STARLINK-6064,PAYLOAD,2023-12-19 22:00:00,15.04085625,0.0003143,69.9997,208.6398,265.2188,288.3133,-0.070091,-0.00900472,0.0,0 STARLINK-6064,1 56805U 23078AQ  23353.91667824 -.00900472  00000-0 -70091-1 0  9995,2 56805  69.9997 208.6398 0003143 265.2188 288.3133 15.04085625 31990,6932.451,95.739,556.495,552.137,0.0
